GORIZONT 1 [-]          
1 11158U 78118A   21341.12145529  .00000036  00000+0  00000+0 0  9998
2 11158  11.2187 213.4112 3527474 270.3070  50.3295  1.00254333106364
GORIZONT 2 [-]          
1 11440U 79062A   21341.80628840 -.00000144  00000+0  00000+0 0  9999
2 11440   9.7297 304.1169 0003564 302.7237 201.2995  1.00239652121451
GORIZONT 3 [-]          
1 11648U 79105A   21341.54680061  .00000107  00000+0  00000+0 0  9999
2 11648   9.8823 305.5017 0012357 209.4606 169.5028  1.00218211105887
GORIZONT 4 [-]          
1 11841U 80049A   21341.61273767 -.00000099  00000+0  00000+0 0  9993
2 11841  11.0162 311.0244 0001729 345.9127  22.0208  0.98630307217227
GORIZONT 5 [-]          
1 13092U 82020A   21341.71364928 -.00000228  00000+0  00000+0 0  9999
2 13092  11.9767 316.2052 0032952 206.3146 339.1339  0.98534272105311
GORIZONT 6 [-]          
1 13624U 82103A   21341.65388319  .00000059  00000+0  00000+0 0  9996
2 13624  10.8851 316.1940 0000779 192.4555  33.6459  1.00174256104370
GORIZONT 7 [-]          
1 14160U 83066A   21342.38449745 -.00000099  00000+0  00000+0 0  9998
2 14160  12.4873 325.2480 0010302 315.7408 227.4670  0.98347609138542
GORIZONT 8 [-]          
1 14532U 83118A   21342.01764213 -.00000014  00000+0  00000+0 0  9996
2 14532  12.6462 327.0540 0028969 141.7223 227.3431  0.98268506104307
GORIZONT 9 [-]          
1 14940U 84041A   21341.98432475 -.00000214  00000+0  00000+0 0  9994
2 14940  11.8460 325.1813 0003468 212.0816 339.7133  1.00315907105454
GORIZONT 10 [-]         
1 15144U 84078A   21341.45611108 -.00000288  00000+0  00000+0 0  9996
2 15144  11.9311 326.1880 0001088  32.2345 177.7132  1.00192157138003
GORIZONT 11 [-]         
1 15484U 85007A   21341.69047394  .00000020  00000+0  00000+0 0  9995
2 15484  12.0926 328.1334 0002468 120.2163 242.0160  1.00308442136066
GORIZONT 12 [-]         
1 16769U 86044A   21341.99147001 -.00000362  00000+0  00000+0 0  9993
2 16769  12.6636 333.4129 0001131 292.7529 276.5564  1.00287777130707
GORIZONT 13 [-]         
1 17083U 86090A   21342.05157007 -.00000070  00000+0  00000+0 0  9995
2 17083  14.4774 340.4079 0014947 335.5265 202.2437  0.96725353102686
GORIZONT 14 [-]         
1 17969U 87040A   21341.75036821 -.00000173  00000+0  00000+0 0  9994
2 17969  13.5109 331.9703 0029959 167.3442 199.9821  0.97660041103725
GORIZONT 15 [-]         
1 19017U 88028A   21342.38973056 -.00000160  00000+0  00000+0 0  9993
2 19017  14.7276 343.3157 0035954 149.0638  44.9061  0.97828686103327
GORIZONT 16 [-]         
1 19397U 88071A   21341.71992900  .00000079  00000+0  00000+0 0  9995
2 19397  13.5871 342.0243 0014651  49.5887 143.6607  0.99980815121710
GORIZONT 17 [-]         
1 19765U 89004A   21341.65050321 -.00000006  00000+0  00000+0 0  9997
2 19765  14.0981 345.3071 0021935 123.3227  52.5752  0.99066302119200
GORIZONT 18 [-]         
1 20107U 89052A   21340.94667510 -.00000142  00000+0  00000+0 0  9998
2 20107  14.1258 346.5858 0034800 313.4093  36.9620  0.99398696117970
GORIZONT 19 [-]         
1 20263U 89081A   21341.61788355  .00000101  00000+0  00000+0 0  9993
2 20263  13.8592 345.8088 0001933 230.0091 130.2860  1.00216272 30767
GORIZONT 20 [-]         
1 20659U 90054A   21341.62076175 -.00000017  00000+0  00000+0 0  9992
2 20659  14.2657 348.6574 0005414 155.7634 219.1050  1.00314643115121
GORIZONT 21 [-]         
1 20923U 90094A   21341.71748689  .00000062  00000+0  00000+0 0  9995
2 20923  14.2664 349.4344 0003118 203.7539 328.4589  1.00312377113877
GORIZONT 22 [-]         
1 20953U 90102A   21342.05523324 -.00000198  00000+0  00000+0 0  9994
2 20953  14.2247 349.7858 0004032   9.4818 178.8462  1.00390615113831
GORIZONT 23 [-]         
1 21533U 91046A   21341.78787209 -.00000193  00000+0  00000+0 0  9995
2 21533  14.9347 353.8683 0004799 318.2177 228.6739  0.98911044 30341
GORIZONT 24 [-]         
1 21759U 91074A   21341.81979399 -.00000226  00000+0  00000+0 0  9990
2 21759  15.0658 355.7300 0016649 221.3985 134.8200  0.98445101108683
GORIZONT 25 [-]         
1 21922U 92017A   21341.61901740  .00000095  00000+0  00000+0 0  9996
2 21922  14.6137 355.1211 0028936  72.2423 285.2444  0.99844228108437
GORIZONT 26 [-]         
1 22041U 92043A   21341.41850244 -.00000297  00000+0  00000+0 0  9993
2 22041  14.7598 357.0744 0030086 230.5299 126.3361  0.99244608107060
GORIZONT 27 [-]         
1 22245U 92082A   21341.85529187 -.00000164  00000+0  00000+0 0  9992
2 22245  14.6816 356.7501 0013323   0.7974 185.3873  1.00227427110595
GORIZONT 28 [-]         
1 22880U 93069A   21342.05689038 -.00000116  00000+0  00000+0 0  9995
2 22880  14.7709   0.5402 0033154 124.0379  62.1396  0.99647365102675
GORIZONT 29 [-]         
1 22907U 93072A   21342.42470510 -.00000350  00000+0  00000+0 0  9993
2 22907  14.6890   0.0301 0011324 339.2706  25.1889  1.00153926102660
GORIZONT 30 [-]         
1 23108U 94030A   21341.55360365 -.00000230  00000+0  00000+0 0  9998
2 23108  14.6927   0.9683 0000330 223.1888 136.3663  1.00392234100923
GORIZONT 31 [-]         
1 23775U 96005A   21341.65730624 -.00000008  00000+0  00000+0 0  9995
2 23775  14.5196   7.0843 0017266 195.5587 356.0386  0.99883458 94543
GORIZONT 32 [-]         
1 23880U 96034A   21342.39051552 -.00000284  00000+0  00000+0 0  9998
2 23880  14.4621   7.6071 0009709 348.6777 183.8940  1.00192134 93498
GORIZONT 33 [-]         
1 26372U 00029A   21341.65730624 -.00000070  00000+0  00000+0 0  9991
2 26372  13.0319  18.5918 0003419  53.9679 125.7002  1.00386759 78840
